ATLAS CENTAUR 2         
1 00694U 63047A   26034.11719767  .00001270  00000+0  14357-3 0  9995
2 00694  30.3545  28.8345 0548128 135.6393 228.9478 14.11969007126736
THOR AGENA D R/B        
1 00733U 64002A   26034.47256657  .00000255  00000+0  10808-3 0  9993
2 00733  99.1227  45.9472 0032881 359.9165   0.2006 14.33997811233390
SL-3 R/B                
1 00877U 64053B   26034.47440432  .00000347  00000+0  91529-4 0  9996
2 00877  65.0764  71.5463 0078002 303.1013  56.2615 14.61330828261792
SL-8 R/B                
1 02802U 67045B   26034.45797228  .00000270  00000+0  82402-4 0  9991
2 02802  74.0098  52.0171 0062926  67.0718 293.7064 14.45589213 84074
SL-8 R/B                
1 03230U 68040B   26034.36643905  .00004241  00000+0  31605-3 0  9995
2 03230  74.0311  23.8086 0025570 217.3186 142.6227 15.02984109 84858
OAO 2                   
1 03597U 68110A   26034.49598464  .00000334  00000+0  95119-4 0  9992
2 03597  34.9933  96.1296 0006115 282.8682  77.1326 14.47285722 14147
ISIS 1                  
1 03669U 69009A   26034.28767122  .00000393  00000+0  26864-3 0  9991
2 03669  88.4550 159.0571 1707860 158.5750 209.6573 11.30397640344641
SERT 2                  
1 04327U 70009A   26034.46705851  .00000016  00000+0  78505-4 0  9998
2 04327  99.2716 339.4416 0003969 250.7742 217.3325 13.58725959775248
SL-3 R/B                
1 05118U 71028B   26034.46106499  .00034815  00000+0  45237-3 0  9991
2 05118  81.2361  94.2226 0017751  54.6721 305.6187 15.58436318983339
ASTEX 1                 
1 05560U 71089A   26034.33497175  .00000657  00000+0  16731-3 0  9993
2 05560  92.7154 140.6440 0015063 192.5802 167.5030 14.50726551857320
SL-8 R/B                
1 05730U 71119B   26033.99406095  .00009595  00000+0  49877-3 0  9995
2 05730  73.8848 240.5244 0554543 214.2624 142.1580 14.36824656650505
OAO 3 (COPERNICUS)      
1 06153U 72065A   26034.53385447  .00000467  00000+0  10015-3 0  9995
2 06153  35.0050 131.9082 0007147 244.3052 132.3273 14.59965932841202
