CCSDS_OMM_VERS = 2.0
CREATION_DATE  = 
ORIGINATOR     = 

OBJECT_NAME    = ATLAS CENTAUR 2
OBJECT_ID      = 1963-047A
CENTER_NAME    = EARTH
REF_FRAME      = TEME
TIME_SYSTEM    = UTC
MEAN_ELEMENT_THEORY = SGP/SGP4

EPOCH          = 2026-02-03T02:48:45.878688
MEAN_MOTION    = 14.11969007
ECCENTRICITY   = .05481286
INCLINATION    = 30.3545
RA_OF_ASC_NODE = 28.8345
ARG_OF_PERICENTER = 135.6393
MEAN_ANOMALY   = 228.9478

EPHEMERIS_TYPE = 0
CLASSIFICATION_TYPE = U
NORAD_CAT_ID   = 694
ELEMENT_SET_NO = 999
REV_AT_EPOCH   = 12673
BSTAR          = .14357336E-3
MEAN_MOTION_DOT = .127E-4
MEAN_MOTION_DDOT = 0

CCSDS_OMM_VERS = 2.0
CREATION_DATE  = 
ORIGINATOR     = 

OBJECT_NAME    = THOR AGENA D R/B
OBJECT_ID      = 1964-002A
CENTER_NAME    = EARTH
REF_FRAME      = TEME
TIME_SYSTEM    = UTC
MEAN_ELEMENT_THEORY = SGP/SGP4

EPOCH          = 2026-02-03T11:20:29.751648
MEAN_MOTION    = 14.33997811
ECCENTRICITY   = .0032881
INCLINATION    = 99.1227
RA_OF_ASC_NODE = 45.9472
ARG_OF_PERICENTER = 359.9165
MEAN_ANOMALY   = 0.2006

EPHEMERIS_TYPE = 0
CLASSIFICATION_TYPE = U
NORAD_CAT_ID   = 733
ELEMENT_SET_NO = 999
REV_AT_EPOCH   = 23339
BSTAR          = .10808E-3
MEAN_MOTION_DOT = .255E-5
MEAN_MOTION_DDOT = 0

CCSDS_OMM_VERS = 2.0
CREATION_DATE  = 
ORIGINATOR     = 

OBJECT_NAME    = SL-3 R/B
OBJECT_ID      = 1964-053B
CENTER_NAME    = EARTH
REF_FRAME      = TEME
TIME_SYSTEM    = UTC
MEAN_ELEMENT_THEORY = SGP/SGP4

EPOCH          = 2026-02-03T11:23:08.533248
MEAN_MOTION    = 14.61330828
ECCENTRICITY   = .0078002
INCLINATION    = 65.0764
RA_OF_ASC_NODE = 71.5463
ARG_OF_PERICENTER = 303.1013
MEAN_ANOMALY   = 56.2615

EPHEMERIS_TYPE = 0
CLASSIFICATION_TYPE = U
NORAD_CAT_ID   = 877
ELEMENT_SET_NO = 999
REV_AT_EPOCH   = 26179
BSTAR          = .91529E-4
MEAN_MOTION_DOT = .347E-5
MEAN_MOTION_DDOT = 0

CCSDS_OMM_VERS = 2.0
CREATION_DATE  = 
ORIGINATOR     = 

OBJECT_NAME    = SL-8 R/B
OBJECT_ID      = 1967-045B
CENTER_NAME    = EARTH
REF_FRAME      = TEME
TIME_SYSTEM    = UTC
MEAN_ELEMENT_THEORY = SGP/SGP4

EPOCH          = 2026-02-03T10:59:28.804992
MEAN_MOTION    = 14.45589213
ECCENTRICITY   = .0062926
INCLINATION    = 74.0098
RA_OF_ASC_NODE = 52.0171
ARG_OF_PERICENTER = 67.0718
MEAN_ANOMALY   = 293.7064

EPHEMERIS_TYPE = 0
CLASSIFICATION_TYPE = U
NORAD_CAT_ID   = 2802
ELEMENT_SET_NO = 999
REV_AT_EPOCH   = 8407
BSTAR          = .82402E-4
MEAN_MOTION_DOT = .27E-5
MEAN_MOTION_DDOT = 0

CCSDS_OMM_VERS = 2.0
CREATION_DATE  = 
ORIGINATOR     = 

OBJECT_NAME    = SL-8 R/B
OBJECT_ID      = 1968-040B
CENTER_NAME    = EARTH
REF_FRAME      = TEME
TIME_SYSTEM    = UTC
MEAN_ELEMENT_THEORY = SGP/SGP4

EPOCH          = 2026-02-03T08:47:40.333920
MEAN_MOTION    = 15.02984109
ECCENTRICITY   = .002557
INCLINATION    = 74.0311
RA_OF_ASC_NODE = 23.8086
ARG_OF_PERICENTER = 217.3186
MEAN_ANOMALY   = 142.6227

EPHEMERIS_TYPE = 0
CLASSIFICATION_TYPE = U
NORAD_CAT_ID   = 3230
ELEMENT_SET_NO = 999
REV_AT_EPOCH   = 8485
BSTAR          = .31605E-3
MEAN_MOTION_DOT = .4241E-4
MEAN_MOTION_DDOT = 0

CCSDS_OMM_VERS = 2.0
CREATION_DATE  = 
ORIGINATOR     = 

OBJECT_NAME    = OAO 2
OBJECT_ID      = 1968-110A
CENTER_NAME    = EARTH
REF_FRAME      = TEME
TIME_SYSTEM    = UTC
MEAN_ELEMENT_THEORY = SGP/SGP4

EPOCH          = 2026-02-03T11:54:13.072896
MEAN_MOTION    = 14.47285722
ECCENTRICITY   = .0006115
INCLINATION    = 34.9933
RA_OF_ASC_NODE = 96.1296
ARG_OF_PERICENTER = 282.8682
MEAN_ANOMALY   = 77.1326

EPHEMERIS_TYPE = 0
CLASSIFICATION_TYPE = U
NORAD_CAT_ID   = 3597
ELEMENT_SET_NO = 999
REV_AT_EPOCH   = 1414
BSTAR          = .95119E-4
MEAN_MOTION_DOT = .334E-5
MEAN_MOTION_DDOT = 0

CCSDS_OMM_VERS = 2.0
CREATION_DATE  = 
ORIGINATOR     = 

OBJECT_NAME    = ISIS 1
OBJECT_ID      = 1969-009A
CENTER_NAME    = EARTH
REF_FRAME      = TEME
TIME_SYSTEM    = UTC
MEAN_ELEMENT_THEORY = SGP/SGP4

EPOCH          = 2026-02-03T06:54:14.793408
MEAN_MOTION    = 11.30397640
ECCENTRICITY   = .170786
INCLINATION    = 88.4550
RA_OF_ASC_NODE = 159.0571
ARG_OF_PERICENTER = 158.5750
MEAN_ANOMALY   = 209.6573

EPHEMERIS_TYPE = 0
CLASSIFICATION_TYPE = U
NORAD_CAT_ID   = 3669
ELEMENT_SET_NO = 999
REV_AT_EPOCH   = 34464
BSTAR          = .26864E-3
MEAN_MOTION_DOT = .393E-5
MEAN_MOTION_DDOT = 0

CCSDS_OMM_VERS = 2.0
CREATION_DATE  = 
ORIGINATOR     = 

OBJECT_NAME    = SERT 2
OBJECT_ID      = 1970-009A
CENTER_NAME    = EARTH
REF_FRAME      = TEME
TIME_SYSTEM    = UTC
MEAN_ELEMENT_THEORY = SGP/SGP4

EPOCH          = 2026-02-03T11:12:33.855264
MEAN_MOTION    = 13.58725959
ECCENTRICITY   = .0003969
INCLINATION    = 99.2716
RA_OF_ASC_NODE = 339.4416
ARG_OF_PERICENTER = 250.7742
MEAN_ANOMALY   = 217.3325

EPHEMERIS_TYPE = 0
CLASSIFICATION_TYPE = U
NORAD_CAT_ID   = 4327
ELEMENT_SET_NO = 999
REV_AT_EPOCH   = 77524
BSTAR          = .78505E-4
MEAN_MOTION_DOT = .16E-6
MEAN_MOTION_DDOT = 0

CCSDS_OMM_VERS = 2.0
CREATION_DATE  = 
ORIGINATOR     = 

OBJECT_NAME    = SL-3 R/B
OBJECT_ID      = 1971-028B
CENTER_NAME    = EARTH
REF_FRAME      = TEME
TIME_SYSTEM    = UTC
MEAN_ELEMENT_THEORY = SGP/SGP4

EPOCH          = 2026-02-03T11:03:56.015136
MEAN_MOTION    = 15.58436318
ECCENTRICITY   = .0017751
INCLINATION    = 81.2361
RA_OF_ASC_NODE = 94.2226
ARG_OF_PERICENTER = 54.6721
MEAN_ANOMALY   = 305.6187

EPHEMERIS_TYPE = 0
CLASSIFICATION_TYPE = U
NORAD_CAT_ID   = 5118
ELEMENT_SET_NO = 999
REV_AT_EPOCH   = 98333
BSTAR          = .45237E-3
MEAN_MOTION_DOT = .34815E-3
MEAN_MOTION_DDOT = 0

CCSDS_OMM_VERS = 2.0
CREATION_DATE  = 
ORIGINATOR     = 

OBJECT_NAME    = ASTEX 1
OBJECT_ID      = 1971-089A
CENTER_NAME    = EARTH
REF_FRAME      = TEME
TIME_SYSTEM    = UTC
MEAN_ELEMENT_THEORY = SGP/SGP4

EPOCH          = 2026-02-03T08:02:21.559200
MEAN_MOTION    = 14.50726551
ECCENTRICITY   = .0015063
INCLINATION    = 92.7154
RA_OF_ASC_NODE = 140.6440
ARG_OF_PERICENTER = 192.5802
MEAN_ANOMALY   = 167.5030

EPHEMERIS_TYPE = 0
CLASSIFICATION_TYPE = U
NORAD_CAT_ID   = 5560
ELEMENT_SET_NO = 999
REV_AT_EPOCH   = 85732
BSTAR          = .16731E-3
MEAN_MOTION_DOT = .657E-5
MEAN_MOTION_DDOT = 0

CCSDS_OMM_VERS = 2.0
CREATION_DATE  = 
ORIGINATOR     = 

OBJECT_NAME    = SL-8 R/B
OBJECT_ID      = 1971-119B
CENTER_NAME    = EARTH
REF_FRAME      = TEME
TIME_SYSTEM    = UTC
MEAN_ELEMENT_THEORY = SGP/SGP4

EPOCH          = 2026-02-02T23:51:26.866080
MEAN_MOTION    = 14.36824656
ECCENTRICITY   = .05545432
INCLINATION    = 73.8848
RA_OF_ASC_NODE = 240.5244
ARG_OF_PERICENTER = 214.2624
MEAN_ANOMALY   = 142.1580

EPHEMERIS_TYPE = 0
CLASSIFICATION_TYPE = U
NORAD_CAT_ID   = 5730
ELEMENT_SET_NO = 999
REV_AT_EPOCH   = 65050
BSTAR          = .4987734E-3
MEAN_MOTION_DOT = .9595E-4
MEAN_MOTION_DDOT = 0

CCSDS_OMM_VERS = 2.0
CREATION_DATE  = 
ORIGINATOR     = 

OBJECT_NAME    = OAO 3 (COPERNICUS)
OBJECT_ID      = 1972-065A
CENTER_NAME    = EARTH
REF_FRAME      = TEME
TIME_SYSTEM    = UTC
MEAN_ELEMENT_THEORY = SGP/SGP4

EPOCH          = 2026-02-03T12:48:45.026208
MEAN_MOTION    = 14.59965932
ECCENTRICITY   = .0007147
INCLINATION    = 35.0050
RA_OF_ASC_NODE = 131.9082
ARG_OF_PERICENTER = 244.3052
MEAN_ANOMALY   = 132.3273

EPHEMERIS_TYPE = 0
CLASSIFICATION_TYPE = U
NORAD_CAT_ID   = 6153
ELEMENT_SET_NO = 999
REV_AT_EPOCH   = 84120
BSTAR          = .10015E-3
MEAN_MOTION_DOT = .467E-5
MEAN_MOTION_DDOT = 0

